{
  "type": "FeatureCollection",
  "features": [
    {
      "type": "Feature",
      "properties": {
        "norad_id": 31761,
        "name": "FENGYUN 1C DEB",
        "group": "fengyun-1c-debris",
        "lat": 29.757618421816844,
        "lon": -157.7391334003361,
        "alt_km": 1022.273465071733,
        "timestamp": "2025-12-09T04:51:47.777027+00:00",
        "meta_object_name": "FENGYUN 1C DEB",
        "meta_object_id": "1999-025CFL",
        "meta_epoch": "2025-12-08T09:53:42.751104",
        "meta_mean_motion": 14.03332637,
        "meta_eccentricity": 0.04729399,
        "meta_inclination": 98.6332,
        "meta_ra_of_asc_node": 206.4904,
        "meta_arg_of_pericenter": 275.6547,
        "meta_mean_anomaly": 79.089,
        "meta_ephemeris_type": 0,
        "meta_classification_type": "U",
        "meta_norad_cat_id": 31761,
        "meta_element_set_no": 999,
        "meta_rev_at_epoch": 58050,
        "meta_bstar": 0.0027547659,
        "meta_mean_motion_dot": 0.00011735,
        "meta_mean_motion_ddot": 0,
        "tle_line1": "1 31761U 99025CFL 25342.41230036  .00011735  00000+0  27548-2 0  9992",
        "tle_line2": "2 31761  98.6332 206.4904 0472939 275.6547  79.0890 14.03332637580509"
      },
      "geometry": {
        "type": "Point",
        "coordinates": [
          -157.7391334003361,
          29.757618421816844
        ]
      }
    },
    {
      "type": "Feature",
      "properties": {
        "norad_id": 31763,
        "name": "FENGYUN 1C DEB",
        "group": "fengyun-1c-debris",
        "lat": 4.495241867903499,
        "lon": 91.41787222460675,
        "alt_km": 941.2999914867505,
        "timestamp": "2025-12-09T04:51:47.777037+00:00",
        "meta_object_name": "FENGYUN 1C DEB",
        "meta_object_id": "1999-025CFN",
        "meta_epoch": "2025-12-08T05:51:53.611200",
        "meta_mean_motion": 13.50313879,
        "meta_eccentricity": 0.05471877,
        "meta_inclination": 98.5212,
        "meta_ra_of_asc_node": 91.2677,
        "meta_arg_of_pericenter": 81.2412,
        "meta_mean_anomaly": 313.6008,
        "meta_ephemeris_type": 0,
        "meta_classification_type": "U",
        "meta_norad_cat_id": 31763,
        "meta_element_set_no": 999,
        "meta_rev_at_epoch": 90945,
        "meta_bstar": 0.0011696232,
        "meta_mean_motion_dot": 1.885e-05,
        "meta_mean_motion_ddot": 0,
        "tle_line1": "1 31763U 99025CFN 25342.24437050  .00001885  00000+0  11696-2 0  9992",
        "tle_line2": "2 31763  98.5212  91.2677 0547187  81.2412 313.6008 13.50313879909459"
      },
      "geometry": {
        "type": "Point",
        "coordinates": [
          91.41787222460675,
          4.495241867903499
        ]
      }
    },
    {
      "type": "Feature",
      "properties": {
        "norad_id": 31766,
        "name": "FENGYUN 1C DEB",
        "group": "fengyun-1c-debris",
        "lat": 18.337316116860414,
        "lon": -21.822074683776613,
        "alt_km": 863.8337736605354,
        "timestamp": "2025-12-09T04:51:47.777048+00:00",
        "meta_object_name": "FENGYUN 1C DEB",
        "meta_object_id": "1999-025CFR",
        "meta_epoch": "2025-12-05T17:02:42.241632",
        "meta_mean_motion": 14.0527359,
        "meta_eccentricity": 0.00736647,
        "meta_inclination": 98.8158,
        "meta_ra_of_asc_node": 337.7312,
        "meta_arg_of_pericenter": 310.9952,
        "meta_mean_anomaly": 48.486,
        "meta_ephemeris_type": 0,
        "meta_classification_type": "U",
        "meta_norad_cat_id": 31766,
        "meta_element_set_no": 999,
        "meta_rev_at_epoch": 63987,
        "meta_bstar": 0.00041011226,
        "meta_mean_motion_dot": 6.36e-06,
        "meta_mean_motion_ddot": 0,
        "tle_line1": "1 31766U 99025CFR 25339.71021113  .00000636  00000+0  41011-3 0  9990",
        "tle_line2": "2 31766  98.8158 337.7312 0073664 310.9952  48.4860 14.05273590639874"
      },
      "geometry": {
        "type": "Point",
        "coordinates": [
          -21.822074683776613,
          18.337316116860414
        ]
      }
    },
    {
      "type": "Feature",
      "properties": {
        "norad_id": 31767,
        "name": "FENGYUN 1C DEB",
        "group": "fengyun-1c-debris",
        "lat": -5.638796189571834,
        "lon": 13.872296890885401,
        "alt_km": 877.6478905454969,
        "timestamp": "2025-12-09T04:51:47.777058+00:00",
        "meta_object_name": "FENGYUN 1C DEB",
        "meta_object_id": "1999-025CFS",
        "meta_epoch": "2025-12-08T08:28:25.696416",
        "meta_mean_motion": 14.04951699,
        "meta_eccentricity": 0.00419591,
        "meta_inclination": 98.8229,
        "meta_ra_of_asc_node": 12.1676,
        "meta_arg_of_pericenter": 82.0441,
        "meta_mean_anomaly": 298.2916,
        "meta_ephemeris_type": 0,
        "meta_classification_type": "U",
        "meta_norad_cat_id": 31767,
        "meta_element_set_no": 999,
        "meta_rev_at_epoch": 94764,
        "meta_bstar": 0.00019412189,
        "meta_mean_motion_dot": 2.72e-06,
        "meta_mean_motion_ddot": 0,
        "tle_line1": "1 31767U 99025CFS 25342.35307519  .00000272  00000+0  19412-3 0  9998",
        "tle_line2": "2 31767  98.8229  12.1676 0041959  82.0441 298.2916 14.04951699947649"
      },
      "geometry": {
        "type": "Point",
        "coordinates": [
          13.872296890885401,
          -5.638796189571834
        ]
      }
    },
    {
      "type": "Feature",
      "properties": {
        "norad_id": 31768,
        "name": "FENGYUN 1C DEB",
        "group": "fengyun-1c-debris",
        "lat": -75.36383355970825,
        "lon": 93.23648862553773,
        "alt_km": 643.4241226969598,
        "timestamp": "2025-12-09T04:51:47.777068+00:00",
        "meta_object_name": "FENGYUN 1C DEB",
        "meta_object_id": "1999-025CFT",
        "meta_epoch": "2025-12-07T00:05:23.203392",
        "meta_mean_motion": 14.75847078,
        "meta_eccentricity": 0.00263444,
        "meta_inclination": 99.0428,
        "meta_ra_of_asc_node": 53.2026,
        "meta_arg_of_pericenter": 359.844,
        "meta_mean_anomaly": 125.5614,
        "meta_ephemeris_type": 0,
        "meta_classification_type": "U",
        "meta_norad_cat_id": 31768,
        "meta_element_set_no": 999,
        "meta_rev_at_epoch": 96788,
        "meta_bstar": 0.0039918663,
        "meta_mean_motion_dot": 0.00027585,
        "meta_mean_motion_ddot": 0,
        "tle_line1": "1 31768U 99025CFT 25341.00374078  .00027585  00000+0  39919-2 0  9993",
        "tle_line2": "2 31768  99.0428  53.2026 0026344 359.8440 125.5614 14.75847078967882"
      },
      "geometry": {
        "type": "Point",
        "coordinates": [
          93.23648862553773,
          -75.36383355970825
        ]
      }
    },
    {
      "type": "Feature",
      "properties": {
        "norad_id": 31772,
        "name": "FENGYUN 1C DEB",
        "group": "fengyun-1c-debris",
        "lat": 51.29361108920336,
        "lon": 91.56423819201416,
        "alt_km": 750.8958777835423,
        "timestamp": "2025-12-09T04:51:47.777078+00:00",
        "meta_object_name": "FENGYUN 1C DEB",
        "meta_object_id": "1999-025CFX",
        "meta_epoch": "2025-12-02T05:33:26.479008",
        "meta_mean_motion": 14.11635308,
        "meta_eccentricity": 0.0135819,
        "meta_inclination": 98.4716,
        "meta_ra_of_asc_node": 254.2606,
        "meta_arg_of_pericenter": 143.9036,
        "meta_mean_anomaly": 217.1401,
        "meta_ephemeris_type": 0,
        "meta_classification_type": "U",
        "meta_norad_cat_id": 31772,
        "meta_element_set_no": 999,
        "meta_rev_at_epoch": 70735,
        "meta_bstar": 0.0011634,
        "meta_mean_motion_dot": 2.268e-05,
        "meta_mean_motion_ddot": 0,
        "tle_line1": "1 31772U 99025CFX 25336.23155647  .00002268  00000+0  11634-2 0  9991",
        "tle_line2": "2 31772  98.4716 254.2606 0135819 143.9036 217.1401 14.11635308707355"
      },
      "geometry": {
        "type": "Point",
        "coordinates": [
          91.56423819201416,
          51.29361108920336
        ]
      }
    },
    {
      "type": "Feature",
      "properties": {
        "norad_id": 31773,
        "name": "FENGYUN 1C DEB",
        "group": "fengyun-1c-debris",
        "lat": 33.54810773725227,
        "lon": 159.76741132163798,
        "alt_km": 630.720805111644,
        "timestamp": "2025-12-09T04:51:47.777088+00:00",
        "meta_object_name": "FENGYUN 1C DEB",
        "meta_object_id": "1999-025CFY",
        "meta_epoch": "2025-12-08T05:22:19.576416",
        "meta_mean_motion": 14.72657344,
        "meta_eccentricity": 0.00387845,
        "meta_inclination": 98.9512,
        "meta_ra_of_asc_node": 332.6908,
        "meta_arg_of_pericenter": 192.9231,
        "meta_mean_anomaly": 167.0984,
        "meta_ephemeris_type": 0,
        "meta_classification_type": "U",
        "meta_norad_cat_id": 31773,
        "meta_element_set_no": 999,
        "meta_rev_at_epoch": 65108,
        "meta_bstar": 0.0024881377,
        "meta_mean_motion_dot": 0.00016017,
        "meta_mean_motion_ddot": 0,
        "tle_line1": "1 31773U 99025CFY 25342.22383769  .00016017  00000+0  24881-2 0  9991",
        "tle_line2": "2 31773  98.9512 332.6908 0038784 192.9231 167.0984 14.72657344651083"
      },
      "geometry": {
        "type": "Point",
        "coordinates": [
          159.76741132163798,
          33.54810773725227
        ]
      }
    }
  ]
}